[
  {
    "OBJECT_NAME": "STARLINK-3312",
    "OBJECT_ID": "22001AZ",
    "EPOCH": "2025-11-11T07:13:57.505728",
    "MEAN_MOTION": 15.0884018,
    "ECCENTRICITY": 0.0001477,
    "INCLINATION": 53.2181,
    "RA_OF_ASC_NODE": 310.5871,
    "ARG_OF_PERICENTER": 92.2252,
    "MEAN_ANOMALY": 267.8909,
    "EPHEMERIS_TYPE": 0,
    "CLASSIFICATION_TYPE": "U",
    "NORAD_CAT_ID": 50850,
    "ELEMENT_SET_NO": 999,
    "REV_AT_EPOCH": 21349,
    "BSTAR": 2.7034000000000002e-05,
    "MEAN_MOTION_DOT": 1.42e-06,
    "MEAN_MOTION_DDOT": 0.0,
    "TLE_LINE1": "1 50850U 22001AZ  25315.30136002  .00000142  00000+0  27034-4 0  9990",
    "TLE_LINE2": "2 50850  53.2181 310.5871 0001477  92.2252 267.8909 15.08840180213491",
    "COMMENT": "Grouped by shell and plane from TLE"
  },
  {
    "OBJECT_NAME": "STARLINK-3934",
    "OBJECT_ID": "22053V",
    "EPOCH": "2025-11-11T06:17:39.280416",
    "MEAN_MOTION": 15.08838766,
    "ECCENTRICITY": 0.0001375,
    "INCLINATION": 53.2168,
    "RA_OF_ASC_NODE": 315.7603,
    "ARG_OF_PERICENTER": 85.3873,
    "MEAN_ANOMALY": 274.7277,
    "EPHEMERIS_TYPE": 0,
    "CLASSIFICATION_TYPE": "U",
    "NORAD_CAT_ID": 52675,
    "ELEMENT_SET_NO": 999,
    "REV_AT_EPOCH": 19329,
    "BSTAR": 7.2267e-05,
    "MEAN_MOTION_DOT": 8.62e-06,
    "MEAN_MOTION_DDOT": 0.0,
    "TLE_LINE1": "1 52675U 22053V   25315.26226019  .00000862  00000+0  72267-4 0  9994",
    "TLE_LINE2": "2 52675  53.2168 315.7603 0001375  85.3873 274.7277 15.08838766193299",
    "COMMENT": "Grouped by shell and plane from TLE"
  },
  {
    "OBJECT_NAME": "STARLINK-4074",
    "OBJECT_ID": "22053Y",
    "EPOCH": "2025-11-11T06:33:33.619392",
    "MEAN_MOTION": 15.0884999,
    "ECCENTRICITY": 0.0001353,
    "INCLINATION": 53.217,
    "RA_OF_ASC_NODE": 315.8169,
    "ARG_OF_PERICENTER": 86.8706,
    "MEAN_ANOMALY": 273.2441,
    "EPHEMERIS_TYPE": 0,
    "CLASSIFICATION_TYPE": "U",
    "NORAD_CAT_ID": 52678,
    "ELEMENT_SET_NO": 999,
    "REV_AT_EPOCH": 19329,
    "BSTAR": 0.00018495,
    "MEAN_MOTION_DOT": 2.658e-05,
    "MEAN_MOTION_DDOT": 0.0,
    "TLE_LINE1": "1 52678U 22053Y   25315.27330578  .00002658  00000+0  18495-3 0  9991",
    "TLE_LINE2": "2 52678  53.2170 315.8169 0001353  86.8706 273.2441 15.08849990193298",
    "COMMENT": "Grouped by shell and plane from TLE"
  },
  {
    "OBJECT_NAME": "STARLINK-4031",
    "OBJECT_ID": "22053Z",
    "EPOCH": "2025-11-11T07:26:33.098784",
    "MEAN_MOTION": 15.08840511,
    "ECCENTRICITY": 0.0001151,
    "INCLINATION": 53.2176,
    "RA_OF_ASC_NODE": 315.5477,
    "ARG_OF_PERICENTER": 92.712,
    "MEAN_ANOMALY": 267.4004,
    "EPHEMERIS_TYPE": 0,
    "CLASSIFICATION_TYPE": "U",
    "NORAD_CAT_ID": 52679,
    "ELEMENT_SET_NO": 999,
    "REV_AT_EPOCH": 19326,
    "BSTAR": 7.601200000000001e-06,
    "MEAN_MOTION_DOT": -1.67e-06,
    "MEAN_MOTION_DDOT": 0.0,
    "TLE_LINE1": "1 52679U 22053Z   25315.31010531 -.00000167  00000+0  76012-5 0  9996",
    "TLE_LINE2": "2 52679  53.2176 315.5477 0001151  92.7120 267.4004 15.08840511193263",
    "COMMENT": "Grouped by shell and plane from TLE"
  },
  {
    "OBJECT_NAME": "STARLINK-3774",
    "OBJECT_ID": "22053AA",
    "EPOCH": "2025-11-11T07:15:53.203104",
    "MEAN_MOTION": 15.08899902,
    "ECCENTRICITY": 0.0001407,
    "INCLINATION": 53.2181,
    "RA_OF_ASC_NODE": 315.3497,
    "ARG_OF_PERICENTER": 77.9261,
    "MEAN_ANOMALY": 282.1889,
    "EPHEMERIS_TYPE": 0,
    "CLASSIFICATION_TYPE": "U",
    "NORAD_CAT_ID": 52680,
    "ELEMENT_SET_NO": 999,
    "REV_AT_EPOCH": 19328,
    "BSTAR": 0.0,
    "MEAN_MOTION_DOT": -0.00010803,
    "MEAN_MOTION_DDOT": 0.0,
    "TLE_LINE1": "1 52680U 22053AA  25315.30269911 -.00010803  00000+0 -66057-3 0  9990",
    "TLE_LINE2": "2 52680  53.2181 315.3497 0001407  77.9261 282.1889 15.08899902193281",
    "COMMENT": "Grouped by shell and plane from TLE"
  },
  {
    "OBJECT_NAME": "STARLINK-4068",
    "OBJECT_ID": "22053AB",
    "EPOCH": "2025-11-11T07:21:14.589504",
    "MEAN_MOTION": 15.08838321,
    "ECCENTRICITY": 0.0001372,
    "INCLINATION": 53.2179,
    "RA_OF_ASC_NODE": 315.5635,
    "ARG_OF_PERICENTER": 83.6303,
    "MEAN_ANOMALY": 276.4845,
    "EPHEMERIS_TYPE": 0,
    "CLASSIFICATION_TYPE": "U",
    "NORAD_CAT_ID": 52681,
    "ELEMENT_SET_NO": 999,
    "REV_AT_EPOCH": 19326,
    "BSTAR": 5.106000000000001e-05,
    "MEAN_MOTION_DOT": 5.25e-06,
    "MEAN_MOTION_DDOT": 0.0,
    "TLE_LINE1": "1 52681U 22053AB  25315.30641886  .00000525  00000+0  51060-4 0  9993",
    "TLE_LINE2": "2 52681  53.2179 315.5635 0001372  83.6303 276.4845 15.08838321193261",
    "COMMENT": "Grouped by shell and plane from TLE"
  },
  {
    "OBJECT_NAME": "STARLINK-4017",
    "OBJECT_ID": "22053AC",
    "EPOCH": "2025-11-11T06:01:46.018848",
    "MEAN_MOTION": 15.08838715,
    "ECCENTRICITY": 0.0001325,
    "INCLINATION": 53.2173,
    "RA_OF_ASC_NODE": 315.8125,
    "ARG_OF_PERICENTER": 90.7291,
    "MEAN_ANOMALY": 269.3853,
    "EPHEMERIS_TYPE": 0,
    "CLASSIFICATION_TYPE": "U",
    "NORAD_CAT_ID": 52682,
    "ELEMENT_SET_NO": 999,
    "REV_AT_EPOCH": 19327,
    "BSTAR": 0.00011553,
    "MEAN_MOTION_DOT": 1.551e-05,
    "MEAN_MOTION_DDOT": 0.0,
    "TLE_LINE1": "1 52682U 22053AC  25315.25122707  .00001551  00000+0  11553-3 0  9996",
    "TLE_LINE2": "2 52682  53.2173 315.8125 0001325  90.7291 269.3853 15.08838715193274",
    "COMMENT": "Grouped by shell and plane from TLE"
  },
  {
    "OBJECT_NAME": "STARLINK-4014",
    "OBJECT_ID": "22053AE",
    "EPOCH": "2025-11-11T05:56:27.506112",
    "MEAN_MOTION": 15.08836487,
    "ECCENTRICITY": 0.0001306,
    "INCLINATION": 53.2181,
    "RA_OF_ASC_NODE": 315.8284,
    "ARG_OF_PERICENTER": 92.5666,
    "MEAN_ANOMALY": 267.5476,
    "EPHEMERIS_TYPE": 0,
    "CLASSIFICATION_TYPE": "U",
    "NORAD_CAT_ID": 52684,
    "ELEMENT_SET_NO": 999,
    "REV_AT_EPOCH": 19325,
    "BSTAR": 6.6253e-05,
    "MEAN_MOTION_DOT": 7.67e-06,
    "MEAN_MOTION_DDOT": 0.0,
    "TLE_LINE1": "1 52684U 22053AE  25315.24754058  .00000767  00000+0  66253-4 0  9993",
    "TLE_LINE2": "2 52684  53.2181 315.8284 0001306  92.5666 267.5476 15.08836487193259",
    "COMMENT": "Grouped by shell and plane from TLE"
  },
  {
    "OBJECT_NAME": "STARLINK-4029",
    "OBJECT_ID": "22053AF",
    "EPOCH": "2025-11-11T07:00:02.220768",
    "MEAN_MOTION": 15.08842562,
    "ECCENTRICITY": 0.0001491,
    "INCLINATION": 53.2175,
    "RA_OF_ASC_NODE": 315.6312,
    "ARG_OF_PERICENTER": 94.8863,
    "MEAN_ANOMALY": 265.23,
    "EPHEMERIS_TYPE": 0,
    "CLASSIFICATION_TYPE": "U",
    "NORAD_CAT_ID": 52685,
    "ELEMENT_SET_NO": 999,
    "REV_AT_EPOCH": 19324,
    "BSTAR": 7.5791e-05,
    "MEAN_MOTION_DOT": 9.19e-06,
    "MEAN_MOTION_DDOT": 0.0,
    "TLE_LINE1": "1 52685U 22053AF  25315.29169237  .00000919  00000+0  75791-4 0  9994",
    "TLE_LINE2": "2 52685  53.2175 315.6312 0001491  94.8863 265.2300 15.08842562193243",
    "COMMENT": "Grouped by shell and plane from TLE"
  },
  {
    "OBJECT_NAME": "STARLINK-4005",
    "OBJECT_ID": "22053AG",
    "EPOCH": "2025-11-11T06:19:04.596096",
    "MEAN_MOTION": 15.08847888,
    "ECCENTRICITY": 0.0001849,
    "INCLINATION": 53.2177,
    "RA_OF_ASC_NODE": 316.0354,
    "ARG_OF_PERICENTER": 82.1814,
    "MEAN_ANOMALY": 277.9389,
    "EPHEMERIS_TYPE": 0,
    "CLASSIFICATION_TYPE": "U",
    "NORAD_CAT_ID": 52686,
    "ELEMENT_SET_NO": 999,
    "REV_AT_EPOCH": 19324,
    "BSTAR": 9.3965e-05,
    "MEAN_MOTION_DOT": 1.208e-05,
    "MEAN_MOTION_DDOT": 0.0,
    "TLE_LINE1": "1 52686U 22053AG  25315.26324764  .00001208  00000+0  93965-4 0  9995",
    "TLE_LINE2": "2 52686  53.2177 316.0354 0001849  82.1814 277.9389 15.08847888193243",
    "COMMENT": "Grouped by shell and plane from TLE"
  },
  {
    "OBJECT_NAME": "STARLINK-3981",
    "OBJECT_ID": "22053AH",
    "EPOCH": "2025-11-11T06:54:44.508960",
    "MEAN_MOTION": 15.08844511,
    "ECCENTRICITY": 0.0001574,
    "INCLINATION": 53.2173,
    "RA_OF_ASC_NODE": 315.6462,
    "ARG_OF_PERICENTER": 89.6084,
    "MEAN_ANOMALY": 270.5089,
    "EPHEMERIS_TYPE": 0,
    "CLASSIFICATION_TYPE": "U",
    "NORAD_CAT_ID": 52687,
    "ELEMENT_SET_NO": 999,
    "REV_AT_EPOCH": 19324,
    "BSTAR": 0.0,
    "MEAN_MOTION_DOT": -3.3e-06,
    "MEAN_MOTION_DDOT": 0.0,
    "TLE_LINE1": "1 52687U 22053AH  25315.28801515 -.00000330  00000+0 -26232-5 0  9993",
    "TLE_LINE2": "2 52687  53.2173 315.6462 0001574  89.6084 270.5089 15.08844511193247",
    "COMMENT": "Grouped by shell and plane from TLE"
  },
  {
    "OBJECT_NAME": "STARLINK-4032",
    "OBJECT_ID": "22053AJ",
    "EPOCH": "2025-11-11T06:49:24.914496",
    "MEAN_MOTION": 15.08845536,
    "ECCENTRICITY": 0.0001404,
    "INCLINATION": 53.2174,
    "RA_OF_ASC_NODE": 315.546,
    "ARG_OF_PERICENTER": 90.4208,
    "MEAN_ANOMALY": 269.6945,
    "EPHEMERIS_TYPE": 0,
    "CLASSIFICATION_TYPE": "U",
    "NORAD_CAT_ID": 52688,
    "ELEMENT_SET_NO": 999,
    "REV_AT_EPOCH": 19324,
    "BSTAR": 0.00010148,
    "MEAN_MOTION_DOT": 1.328e-05,
    "MEAN_MOTION_DDOT": 0.0,
    "TLE_LINE1": "1 52688U 22053AJ  25315.28431614  .00001328  00000+0  10148-3 0  9996",
    "TLE_LINE2": "2 52688  53.2174 315.5460 0001404  90.4208 269.6945 15.08845536193244",
    "COMMENT": "Grouped by shell and plane from TLE"
  },
  {
    "OBJECT_NAME": "STARLINK-4035",
    "OBJECT_ID": "22053AL",
    "EPOCH": "2025-11-11T07:05:20.387040",
    "MEAN_MOTION": 15.08845724,
    "ECCENTRICITY": 0.0001386,
    "INCLINATION": 53.2176,
    "RA_OF_ASC_NODE": 315.6135,
    "ARG_OF_PERICENTER": 88.3447,
    "MEAN_ANOMALY": 271.7704,
    "EPHEMERIS_TYPE": 0,
    "CLASSIFICATION_TYPE": "U",
    "NORAD_CAT_ID": 52690,
    "ELEMENT_SET_NO": 999,
    "REV_AT_EPOCH": 19324,
    "BSTAR": 0.0,
    "MEAN_MOTION_DOT": -9.96e-06,
    "MEAN_MOTION_DDOT": 0.0,
    "TLE_LINE1": "1 52690U 22053AL  25315.29537485 -.00000996  00000+0 -44462-4 0  9992",
    "TLE_LINE2": "2 52690  53.2176 315.6135 0001386  88.3447 271.7704 15.08845724193245",
    "COMMENT": "Grouped by shell and plane from TLE"
  }
]